stk.v.4.3 

BEGIN Ephemeris 
 
NumberOfEphemerisPoints		146 
ScenarioEpoch	    1 Sep 2020 11:51:34.572083652 
InterpolationMethod		Lagrange 
InterpolationOrder		5 
CentralBody				Earth 
CoordinateSystem			TEME 
CoordinateSystemEpoch	  1 Sep 2020 11:51:34.572083652 
DistanceUnit			Kilometers 
 
EphemerisTimePosVel 
 
       0.00000000   -2209.74455533   -6809.47579355       0.04545770  0.449260032 -0.135772489  7.448513865
 END Ephemeris 
